start=new Date('2023-02-13T00:00:00.000Z').valueOf();
sats=[{"ECCENTRICITY":"0.00017210","RA_OF_ASC_NODE":"92.7225","COUNTRY_CODE":"US","OBJECT_NAME":"STARLINK-3742","FILE":"3787692","TLE_LINE2":"2 52303  53.2156  92.7225 0001721  78.4196 281.6990 15.08847790 46453","APOAPSIS":"540.912","SEMIMAJOR_AXIS":"6917.857","RCS_SIZE":"LARGE","OBJECT_ID":"2022-041AU","MEAN_ELEMENT_THEORY":"SGP4","SITE":"AFETR","MEAN_ANOMALY":"281.6990","LAUNCH_DATE":"2022-04-21","CENTER_NAME":"EARTH","NORAD_CAT_ID":"52303","MEAN_MOTION_DOT":"0.00004334","REF_FRAME":"TEME","DECAY_DATE":null,"OBJECT_TYPE":"PAYLOAD","PERIOD":"95.437","REV_AT_EPOCH":"4645","BSTAR":"0.00029020000000","ELEMENT_SET_NO":"999","INCLINATION":"53.2156","GP_ID":"225236181","TIME_SYSTEM":"UTC","PERIAPSIS":"538.531","MEAN_MOTION":"15.08847790","EPHEMERIS_TYPE":"0","ARG_OF_PERICENTER":"78.4196","CLASSIFICATION_TYPE":"U","TLE_LINE1":"1 52303U 22041AU  23043.41563501  .00004334  00000-0  29020-3 0  9999","EPOCH":"2023-02-12T09:58:30.864864","MEAN_MOTION_DDOT":"0.0000000000000"},{"RCS_SIZE":"LARGE","OBJECT_ID":"2022-041AV","MEAN_ELEMENT_THEORY":"SGP4","SITE":"AFETR","MEAN_ANOMALY":"236.0420","ECCENTRICITY":"0.00013390","RA_OF_ASC_NODE":"81.0175","COUNTRY_CODE":"US","OBJECT_NAME":"STARLINK-3744","FILE":"3787986","TLE_LINE2":"2 52304  53.2151  81.0175 0001339 124.0699 236.0420 15.08847334 46642","APOAPSIS":"540.649","SEMIMAJOR_AXIS":"6917.858","INCLINATION":"53.2151","GP_ID":"225272759","TIME_SYSTEM":"UTC","PERIAPSIS":"538.797","MEAN_MOTION":"15.08847334","EPHEMERIS_TYPE":"0","ARG_OF_PERICENTER":"124.0699","CLASSIFICATION_TYPE":"U","TLE_LINE1":"1 52304U 22041AV  23043.79559018  .00001229  00000-0  95251-4 0  9999","EPOCH":"2023-02-12T19:05:38.991552","MEAN_MOTION_DDOT":"0.0000000000000","LAUNCH_DATE":"2022-04-21","CENTER_NAME":"EARTH","NORAD_CAT_ID":"52304","MEAN_MOTION_DOT":"0.00001229","DECAY_DATE":null,"REF_FRAME":"TEME","OBJECT_TYPE":"PAYLOAD","PERIOD":"95.437","REV_AT_EPOCH":"4664","BSTAR":"0.00009525100000","ELEMENT_SET_NO":"999"},{"MEAN_ELEMENT_THEORY":"SGP4","MEAN_ANOMALY":"249.5220","SITE":"AFETR","RCS_SIZE":"MEDIUM","OBJECT_ID":"2022-041AW","COUNTRY_CODE":"US","OBJECT_NAME":"STARLINK-3724","FILE":"3787986","TLE_LINE2":"2 52305  53.2161  92.1876 0001066 110.5885 249.5220 15.07224065 46476","APOAPSIS":"545.427","SEMIMAJOR_AXIS":"6922.824","ECCENTRICITY":"0.00010660","RA_OF_ASC_NODE":"92.1876","TLE_LINE1":"1 52305U 22041AW  23043.54861746  .00000257  00000-0  35451-4 0  9993","EPOCH":"2023-02-12T13:10:00.548544","MEAN_MOTION_DDOT":"0.0000000000000","INCLINATION":"53.2161","TIME_SYSTEM":"UTC","GP_ID":"225272753","PERIAPSIS":"543.951","MEAN_MOTION":"15.07224065","EPHEMERIS_TYPE":"0","ARG_OF_PERICENTER":"110.5885","CLASSIFICATION_TYPE":"U","PERIOD":"95.540","REV_AT_EPOCH":"4647","BSTAR":"0.00003545100000","ELEMENT_SET_NO":"999","CENTER_NAME":"EARTH","LAUNCH_DATE":"2022-04-21","MEAN_MOTION_DOT":"0.00000257","NORAD_CAT_ID":"52305","DECAY_DATE":null,"REF_FRAME":"TEME","OBJECT_TYPE":"PAYLOAD"},{"INCLINATION":"53.2164","GP_ID":"225272760","TIME_SYSTEM":"UTC","PERIAPSIS":"537.181","MEAN_MOTION":"15.08806167","ARG_OF_PERICENTER":"77.6769","EPHEMERIS_TYPE":"0","CLASSIFICATION_TYPE":"U","TLE_LINE1":"1 52306U 22041AX  23043.79192283  .00028427  00000-0  17985-2 0  9993","EPOCH":"2023-02-12T19:00:22.132512","MEAN_MOTION_DDOT":"0.0000000000000","LAUNCH_DATE":"2022-04-21","CENTER_NAME":"EARTH","NORAD_CAT_ID":"52306","MEAN_MOTION_DOT":"0.00028427","REF_FRAME":"TEME","DECAY_DATE":null,"OBJECT_TYPE":"PAYLOAD","PERIOD":"95.440","REV_AT_EPOCH":"4664","BSTAR":"0.00179850000000","ELEMENT_SET_NO":"999","RCS_SIZE":"LARGE","OBJECT_ID":"2022-041AX","MEAN_ELEMENT_THEORY":"SGP4","SITE":"AFETR","MEAN_ANOMALY":"282.4655","ECCENTRICITY":"0.00038560","RA_OF_ASC_NODE":"81.0191","COUNTRY_CODE":"US","OBJECT_NAME":"STARLINK-3747","FILE":"3787986","TLE_LINE2":"2 52306  53.2164  81.0191 0003856  77.6769 282.4655 15.08806167 46647","APOAPSIS":"542.516","SEMIMAJOR_AXIS":"6917.984"},{"MEAN_ANOMALY":"246.4723","SITE":"AFETR","MEAN_ELEMENT_THEORY":"SGP4","OBJECT_ID":"2022-041AY","RCS_SIZE":"LARGE","SEMIMAJOR_AXIS":"6917.848","FILE":"3787692","COUNTRY_CODE":"US","OBJECT_NAME":"STARLINK-3755","APOAPSIS":"540.331","TLE_LINE2":"2 52307  53.2141  92.1572 0000894 113.6363 246.4723 15.08850737 45253","ECCENTRICITY":"0.00008940","RA_OF_ASC_NODE":"92.1572","EPOCH":"2023-02-12T12:58:40.754208","MEAN_MOTION_DDOT":"0.0000000000000","TLE_LINE1":"1 52307U 22041AY  23043.54074947  .00004099  00000-0  27541-3 0  9992","MEAN_MOTION":"15.08850737","PERIAPSIS":"539.094","CLASSIFICATION_TYPE":"U","ARG_OF_PERICENTER":"113.6363","EPHEMERIS_TYPE":"0","INCLINATION":"53.2141","TIME_SYSTEM":"UTC","GP_ID":"225235682","ELEMENT_SET_NO":"999","PERIOD":"95.437","BSTAR":"0.00027541000000","REV_AT_EPOCH":"4525","OBJECT_TYPE":"PAYLOAD","DECAY_DATE":null,"REF_FRAME":"TEME","LAUNCH_DATE":"2022-04-21","CENTER_NAME":"EARTH","NORAD_CAT_ID":"52307","MEAN_MOTION_DOT":"0.00004099"},{"DECAY_DATE":null,"REF_FRAME":"TEME","OBJECT_TYPE":"PAYLOAD","MEAN_MOTION_DOT":"0.00001542","NORAD_CAT_ID":"52308","LAUNCH_DATE":"2022-04-21","CENTER_NAME":"EARTH","ELEMENT_SET_NO":"999","REV_AT_EPOCH":"4660","BSTAR":"0.00011491000000","PERIOD":"95.437","EPHEMERIS_TYPE":"0","ARG_OF_PERICENTER":"91.7262","CLASSIFICATION_TYPE":"U","PERIAPSIS":"538.735","MEAN_MOTION":"15.08845108","GP_ID":"225235930","TIME_SYSTEM":"UTC","INCLINATION":"53.2140","MEAN_MOTION_DDOT":"0.0000000000000","EPOCH":"2023-02-12T12:28:12.985536","TLE_LINE1":"1 52308U 22041AZ  23043.51959474  .00001542  00000-0  11491-3 0  9994","RA_OF_ASC_NODE":"82.2537","ECCENTRICITY":"0.00014380","SEMIMAJOR_AXIS":"6917.865","TLE_LINE2":"2 52308  53.2140  82.2537 0001438  91.7262 268.3894 15.08845108 46601","APOAPSIS":"540.725","COUNTRY_CODE":"US","OBJECT_NAME":"STARLINK-3745","FILE":"3787692","OBJECT_ID":"2022-041AZ","RCS_SIZE":"LARGE","MEAN_ANOMALY":"268.3894","SITE":"AFETR","MEAN_ELEMENT_THEORY":"SGP4"},{"PERIOD":"95.436","REV_AT_EPOCH":"4658","BSTAR":"0.00196930000000","ELEMENT_SET_NO":"999","CENTER_NAME":"EARTH","LAUNCH_DATE":"2022-04-21","MEAN_MOTION_DOT":"0.00031208","NORAD_CAT_ID":"52309","DECAY_DATE":null,"REF_FRAME":"TEME","OBJECT_TYPE":"PAYLOAD","TLE_LINE1":"1 52309U 22041BA  23043.39079763  .00031208  00000-0  19693-2 0  9998","EPOCH":"2023-02-12T09:22:44.915232","MEAN_MOTION_DDOT":"0.0000000000000","INCLINATION":"53.2153","TIME_SYSTEM":"UTC","GP_ID":"225237178","PERIAPSIS":"538.906","MEAN_MOTION":"15.08857657","EPHEMERIS_TYPE":"0","ARG_OF_PERICENTER":"72.0553","CLASSIFICATION_TYPE":"U","COUNTRY_CODE":"US","OBJECT_NAME":"STARLINK-3756","FILE":"3787692","TLE_LINE2":"2 52309  53.2153  82.8297 0001135  72.0553 288.0563 15.08857657 46585","APOAPSIS":"540.477","SEMIMAJOR_AXIS":"6917.826","ECCENTRICITY":"0.00011350","RA_OF_ASC_NODE":"82.8297","MEAN_ELEMENT_THEORY":"SGP4","MEAN_ANOMALY":"288.0563","SITE":"AFETR","RCS_SIZE":"LARGE","OBJECT_ID":"2022-041BA"},{"RCS_SIZE":"LARGE","OBJECT_ID":"2022-041BB","MEAN_ELEMENT_THEORY":"SGP4","MEAN_ANOMALY":"276.0176","SITE":"AFETR","RA_OF_ASC_NODE":"82.2871","ECCENTRICITY":"0.00016650","TLE_LINE2":"2 52310  53.2135  82.2871 0001665  84.1006 276.0176 15.08847890 46602","APOAPSIS":"540.873","COUNTRY_CODE":"US","OBJECT_NAME":"STARLINK-3688","FILE":"3787692","SEMIMAJOR_AXIS":"6917.856","GP_ID":"225237418","TIME_SYSTEM":"UTC","INCLINATION":"53.2135","ARG_OF_PERICENTER":"84.1006","EPHEMERIS_TYPE":"0","CLASSIFICATION_TYPE":"U","PERIAPSIS":"538.569","MEAN_MOTION":"15.08847890","TLE_LINE1":"1 52310U 22041BB  23043.51318833  .00001016  00000-0  81928-4 0  9994","MEAN_MOTION_DDOT":"0.0000000000000","EPOCH":"2023-02-12T12:18:59.471712","MEAN_MOTION_DOT":"0.00001016","NORAD_CAT_ID":"52310","LAUNCH_DATE":"2022-04-21","CENTER_NAME":"EARTH","DECAY_DATE":null,"REF_FRAME":"TEME","OBJECT_TYPE":"PAYLOAD","REV_AT_EPOCH":"4660","BSTAR":"0.00008192800000","PERIOD":"95.437","ELEMENT_SET_NO":"999"},{"LAUNCH_DATE":"2022-04-21","CENTER_NAME":"EARTH","NORAD_CAT_ID":"52311","MEAN_MOTION_DOT":"0.00001786","REF_FRAME":"TEME","DECAY_DATE":null,"OBJECT_TYPE":"PAYLOAD","PERIOD":"95.437","REV_AT_EPOCH":"4660","BSTAR":"0.00013027000000","ELEMENT_SET_NO":"999","INCLINATION":"53.2155","TIME_SYSTEM":"UTC","GP_ID":"225236182","PERIAPSIS":"538.634","MEAN_MOTION":"15.08843160","EPHEMERIS_TYPE":"0","ARG_OF_PERICENTER":"84.5664","CLASSIFICATION_TYPE":"U","TLE_LINE1":"1 52311U 22041BC  23043.51591685  .00001786  00000-0  13027-3 0  9991","EPOCH":"2023-02-12T12:22:55.215840","MEAN_MOTION_DDOT":"0.0000000000000","ECCENTRICITY":"0.00015930","RA_OF_ASC_NODE":"82.2669","COUNTRY_CODE":"US","OBJECT_NAME":"STARLINK-3750","FILE":"3787692","TLE_LINE2":"2 52311  53.2155  82.2669 0001593  84.5664 275.5510 15.08843160 46606","APOAPSIS":"540.838","SEMIMAJOR_AXIS":"6917.871","RCS_SIZE":"LARGE","OBJECT_ID":"2022-041BC","MEAN_ELEMENT_THEORY":"SGP4","MEAN_ANOMALY":"275.5510","SITE":"AFETR"},{"RA_OF_ASC_NODE":"80.4226","ECCENTRICITY":"0.00014890","APOAPSIS":"536.960","TLE_LINE2":"2 52312  53.2137  80.4226 0001489  87.7274 147.4658 15.10088980 46662","FILE":"3787987","OBJECT_NAME":"STARLINK-3752","COUNTRY_CODE":"US","SEMIMAJOR_AXIS":"6914.065","RCS_SIZE":"LARGE","OBJECT_ID":"2022-041BD","MEAN_ELEMENT_THEORY":"SGP4","SITE":"AFETR","MEAN_ANOMALY":"147.4658","MEAN_MOTION_DOT":"-0.00409780","NORAD_CAT_ID":"52312","LAUNCH_DATE":"2022-04-21","CENTER_NAME":"EARTH","OBJECT_TYPE":"PAYLOAD","DECAY_DATE":null,"REF_FRAME":"TEME","BSTAR":"-0.02631700000000","REV_AT_EPOCH":"4666","PERIOD":"95.359","ELEMENT_SET_NO":"999","TIME_SYSTEM":"UTC","GP_ID":"225272908","INCLINATION":"53.2137","CLASSIFICATION_TYPE":"U","EPHEMERIS_TYPE":"0","ARG_OF_PERICENTER":"87.7274","MEAN_MOTION":"15.10088980","PERIAPSIS":"534.901","TLE_LINE1":"1 52312U 22041BD  23043.91667824 -.00409780  00000-0 -26317-1 0  9997","MEAN_MOTION_DDOT":"0.0000000000000","EPOCH":"2023-02-12T22:00:00.999936"}];
